{
  "type": "FeatureCollection",
  "features": [
    {
      "type": "Feature",
      "properties": {
        "norad_id": 38479,
        "name": "COSMOS 2251 DEB",
        "group": "cosmos-2251-debris",
        "lat": -73.5055839958831,
        "lon": 116.361143529848,
        "alt_km": 718.0754461642819,
        "timestamp": "2025-12-08T13:49:32.192449+00:00",
        "meta_object_name": "COSMOS 2251 DEB",
        "meta_object_id": "1993-036BTP",
        "meta_epoch": "2025-12-07T08:59:39.442848",
        "meta_mean_motion": 14.38206673,
        "meta_eccentricity": 0.00841346,
        "meta_inclination": 74.0062,
        "meta_ra_of_asc_node": 194.1851,
        "meta_arg_of_pericenter": 304.3945,
        "meta_mean_anomaly": 232.7575,
        "meta_ephemeris_type": 0,
        "meta_classification_type": "U",
        "meta_norad_cat_id": 38479,
        "meta_element_set_no": 999,
        "meta_rev_at_epoch": 64610,
        "meta_bstar": 0.0026377804,
        "meta_mean_motion_dot": 8.33e-05,
        "meta_mean_motion_ddot": 0,
        "tle_line1": "1 38479U 93036BTP 25341.37476207  .00008330  00000+0  26378-2 0  9994",
        "tle_line2": "2 38479  74.0062 194.1851 0084134 304.3945 232.7575 14.38206673646107"
      },
      "geometry": {
        "type": "Point",
        "coordinates": [
          116.361143529848,
          -73.5055839958831
        ]
      }
    },
    {
      "type": "Feature",
      "properties": {
        "norad_id": 38481,
        "name": "COSMOS 2251 DEB",
        "group": "cosmos-2251-debris",
        "lat": 64.22979146988527,
        "lon": 158.10275886620624,
        "alt_km": 1058.110960014963,
        "timestamp": "2025-12-08T13:49:32.192459+00:00",
        "meta_object_name": "COSMOS 2251 DEB",
        "meta_object_id": "1993-036BTR",
        "meta_epoch": "2025-12-07T20:04:54.972768",
        "meta_mean_motion": 13.94787579,
        "meta_eccentricity": 0.0233704,
        "meta_inclination": 73.9329,
        "meta_ra_of_asc_node": 16.0313,
        "meta_arg_of_pericenter": 317.436,
        "meta_mean_anomaly": 40.8857,
        "meta_ephemeris_type": 0,
        "meta_classification_type": "U",
        "meta_norad_cat_id": 38481,
        "meta_element_set_no": 999,
        "meta_rev_at_epoch": 58992,
        "meta_bstar": 0.0025212109,
        "meta_mean_motion_dot": 4.22e-05,
        "meta_mean_motion_ddot": 0,
        "tle_line1": "1 38481U 93036BTR 25341.83674737  .00004220  00000+0  25212-2 0  9996",
        "tle_line2": "2 38481  73.9329  16.0313 0233704 317.4360  40.8857 13.94787579589921"
      },
      "geometry": {
        "type": "Point",
        "coordinates": [
          158.10275886620624,
          64.22979146988527
        ]
      }
    },
    {
      "type": "Feature",
      "properties": {
        "norad_id": 38483,
        "name": "COSMOS 2251 DEB",
        "group": "cosmos-2251-debris",
        "lat": 58.27104790586035,
        "lon": 46.334773192214634,
        "alt_km": 753.8091754869938,
        "timestamp": "2025-12-08T13:49:32.192470+00:00",
        "meta_object_name": "COSMOS 2251 DEB",
        "meta_object_id": "1993-036BTT",
        "meta_epoch": "2025-12-05T09:54:51.547104",
        "meta_mean_motion": 14.28743518,
        "meta_eccentricity": 0.01115299,
        "meta_inclination": 74.2614,
        "meta_ra_of_asc_node": 24.8593,
        "meta_arg_of_pericenter": 132.5252,
        "meta_mean_anomaly": 228.5384,
        "meta_ephemeris_type": 0,
        "meta_classification_type": "U",
        "meta_norad_cat_id": 38483,
        "meta_element_set_no": 999,
        "meta_rev_at_epoch": 63373,
        "meta_bstar": 0.0016991918,
        "meta_mean_motion_dot": 4.552e-05,
        "meta_mean_motion_ddot": 0,
        "tle_line1": "1 38483U 93036BTT 25339.41309661  .00004552  00000+0  16992-2 0  9993",
        "tle_line2": "2 38483  74.2614  24.8593 0111529 132.5252 228.5384 14.28743518633739"
      },
      "geometry": {
        "type": "Point",
        "coordinates": [
          46.334773192214634,
          58.27104790586035
        ]
      }
    },
    {
      "type": "Feature",
      "properties": {
        "norad_id": 38486,
        "name": "COSMOS 2251 DEB",
        "group": "cosmos-2251-debris",
        "lat": 71.29168495248335,
        "lon": -25.267852496723034,
        "alt_km": 648.4202855785552,
        "timestamp": "2025-12-08T13:49:32.192480+00:00",
        "meta_object_name": "COSMOS 2251 DEB",
        "meta_object_id": "1993-036BTW",
        "meta_epoch": "2025-12-06T22:20:18.224736",
        "meta_mean_motion": 14.72994034,
        "meta_eccentricity": 0.00300466,
        "meta_inclination": 73.9399,
        "meta_ra_of_asc_node": 216.2395,
        "meta_arg_of_pericenter": 1.0805,
        "meta_mean_anomaly": 16.9545,
        "meta_ephemeris_type": 0,
        "meta_classification_type": "U",
        "meta_norad_cat_id": 38486,
        "meta_element_set_no": 999,
        "meta_rev_at_epoch": 75349,
        "meta_bstar": 0.0040836138,
        "meta_mean_motion_dot": 0.00026487,
        "meta_mean_motion_ddot": 0,
        "tle_line1": "1 38486U 93036BTW 25340.93076649  .00026487  00000+0  40836-2 0  9997",
        "tle_line2": "2 38486  73.9399 216.2395 0030046   1.0805  16.9545 14.72994034753497"
      },
      "geometry": {
        "type": "Point",
        "coordinates": [
          -25.267852496723034,
          71.29168495248335
        ]
      }
    },
    {
      "type": "Feature",
      "properties": {
        "norad_id": 38487,
        "name": "COSMOS 2251 DEB",
        "group": "cosmos-2251-debris",
        "lat": -57.228717958336894,
        "lon": 16.027505341663524,
        "alt_km": 520.5078569811658,
        "timestamp": "2025-12-08T13:49:32.192490+00:00",
        "meta_object_name": "COSMOS 2251 DEB",
        "meta_object_id": "1993-036BTX",
        "meta_epoch": "2025-12-06T20:56:11.470272",
        "meta_mean_motion": 15.1665427,
        "meta_eccentricity": 0.00224486,
        "meta_inclination": 73.9743,
        "meta_ra_of_asc_node": 46.1118,
        "meta_arg_of_pericenter": 218.6783,
        "meta_mean_anomaly": 141.2806,
        "meta_ephemeris_type": 0,
        "meta_classification_type": "U",
        "meta_norad_cat_id": 38487,
        "meta_element_set_no": 999,
        "meta_rev_at_epoch": 66711,
        "meta_bstar": 0.0030578536,
        "meta_mean_motion_dot": 0.00060697,
        "meta_mean_motion_ddot": 0,
        "tle_line1": "1 38487U 93036BTX 25340.87235498  .00060697  00000+0  30579-2 0  9994",
        "tle_line2": "2 38487  73.9743  46.1118 0022448 218.6783 141.2806 15.16654270667111"
      },
      "geometry": {
        "type": "Point",
        "coordinates": [
          16.027505341663524,
          -57.228717958336894
        ]
      }
    },
    {
      "type": "Feature",
      "properties": {
        "norad_id": 39109,
        "name": "COSMOS 2251 DEB",
        "group": "cosmos-2251-debris",
        "lat": -13.827058654786482,
        "lon": 57.19389724027621,
        "alt_km": 696.3424450651382,
        "timestamp": "2025-12-08T13:49:32.192501+00:00",
        "meta_object_name": "COSMOS 2251 DEB",
        "meta_object_id": "1993-036BTY",
        "meta_epoch": "2025-12-07T09:44:29.277888",
        "meta_mean_motion": 14.70664574,
        "meta_eccentricity": 0.00591147,
        "meta_inclination": 74.043,
        "meta_ra_of_asc_node": 235.425,
        "meta_arg_of_pericenter": 339.9553,
        "meta_mean_anomaly": 141.919,
        "meta_ephemeris_type": 0,
        "meta_classification_type": "U",
        "meta_norad_cat_id": 39109,
        "meta_element_set_no": 999,
        "meta_rev_at_epoch": 65095,
        "meta_bstar": 0.0010290014,
        "meta_mean_motion_dot": 6.41e-05,
        "meta_mean_motion_ddot": 0,
        "tle_line1": "1 39109U 93036BTY 25341.40589442  .00006410  00000+0  10290-2 0  9998",
        "tle_line2": "2 39109  74.0430 235.4250 0059114 339.9553 141.9190 14.70664574650954"
      },
      "geometry": {
        "type": "Point",
        "coordinates": [
          57.19389724027621,
          -13.827058654786482
        ]
      }
    },
    {
      "type": "Feature",
      "properties": {
        "norad_id": 39110,
        "name": "COSMOS 2251 DEB",
        "group": "cosmos-2251-debris",
        "lat": -6.420249526051026,
        "lon": 67.79248033603773,
        "alt_km": 614.0107585053365,
        "timestamp": "2025-12-08T13:49:32.192512+00:00",
        "meta_object_name": "COSMOS 2251 DEB",
        "meta_object_id": "1993-036BTZ",
        "meta_epoch": "2025-12-03T13:14:13.055136",
        "meta_mean_motion": 14.72215365,
        "meta_eccentricity": 0.00964609,
        "meta_inclination": 73.9598,
        "meta_ra_of_asc_node": 79.4668,
        "meta_arg_of_pericenter": 313.6965,
        "meta_mean_anomaly": 59.6182,
        "meta_ephemeris_type": 0,
        "meta_classification_type": "U",
        "meta_norad_cat_id": 39110,
        "meta_element_set_no": 999,
        "meta_rev_at_epoch": 62349,
        "meta_bstar": 0.00066560445,
        "meta_mean_motion_dot": 4.484e-05,
        "meta_mean_motion_ddot": 0,
        "tle_line1": "1 39110U 93036BTZ 25337.55153999  .00004484  00000+0  66560-3 0  9996",
        "tle_line2": "2 39110  73.9598  79.4668 0096460 313.6965  59.6182 14.72215365623496"
      },
      "geometry": {
        "type": "Point",
        "coordinates": [
          67.79248033603773,
          -6.420249526051026
        ]
      }
    }
  ]
}